NORAD_CAT_ID,OBJECT_NAME,OBJECT_TYPE,EPOCH,MEAN_MOTION,ECCENTRICITY,INCLINATION,RA_OF_ASC_NODE,ARG_OF_PERICENTER,MEAN_ANOMALY,BSTAR,MEAN_MOTION_DOT,MEAN_MOTION_DDOT,TLE_LINE0,TLE_LINE1,TLE_LINE2,SEMIMAJOR_AXIS,PERIOD,APOGEE,PERIGEE,DECAYED
52630.0,STARLINK-3989,PAYLOAD,2024-02-11 11:11:42,15.08837932,0.0001321,53.2187,68.4189,86.8571,273.2573,0.00019089,2.751e-05,0.0,0 STARLINK-3989,1 52630U 22052AJ  24042.46646550  .00002751  00000-0  19089-3 0  9990,2 52630  53.2187  68.4189 0001321  86.8571 273.2573 15.08837932 97058,6917.887,95.438,540.666,538.838,0.0
52630.0,STARLINK-3989,PAYLOAD,2024-02-12 11:02:29,15.08845332,0.0001748,53.2191,63.958,111.4175,248.7004,-9.7583e-06,-4.43e-06,0.0,0 STARLINK-3989,1 52630U 22052AJ  24043.46006406 -.00000443  00000-0 -97583-5 0  9996,2 52630  53.2191  63.9580 0001748 111.4175 248.7004 15.08845332 96829,6917.864,95.437,540.938,538.52,0.0
52630.0,STARLINK-3989,PAYLOAD,2024-02-13 07:42:30,15.08842555,0.0001479,53.2181,60.0988,89.6175,270.4987,-6.5262e-05,-1.327e-05,0.0,0 STARLINK-3989,1 52630U 22052AJ  24044.32118931 -.00001327  00000-0 -65262-4 0  9999,2 52630  53.2181  60.0988 0001479  89.6175 270.4987 15.08842555 97338,6917.873,95.437,540.761,538.714,0.0
52630.0,STARLINK-3989,PAYLOAD,2024-02-14 07:33:17,15.08843314,0.0001618,53.219,55.6448,104.0777,256.0395,3.6187e-05,2.88e-06,0.0,0 STARLINK-3989,1 52630U 22052AJ  24045.31478828  .00000288  00000-0  36187-4 0  9990,2 52630  53.2190  55.6448 0001618 104.0777 256.0395 15.08843314 97106,6917.87,95.437,540.855,538.616,0.0
52630.0,STARLINK-3989,PAYLOAD,2024-02-14 17:05:36,15.08840962,0.0001504,53.2171,53.8576,80.1809,279.9353,-5.7423e-05,-1.202e-05,0.0,0 STARLINK-3989,1 52630U 22052AJ  24045.71223240 -.00001202  00000-0 -57423-4 0  9995,2 52630  53.2171  53.8576 0001504  80.1809 279.9353 15.08840962 97543,6917.877,95.437,540.783,538.702,0.0
52630.0,STARLINK-3989,PAYLOAD,2024-02-15 04:13:19,15.08833649,0.0001564,53.2185,51.7788,99.6342,260.4827,1.909e-05,1.6e-07,0.0,0 STARLINK-3989,1 52630U 22052AJ  24046.17591827  .00000016  00000-0  19090-4 0  9993,2 52630  53.2185  51.7788 0001564  99.6342 260.4827 15.08833649 97616,6917.9,95.438,540.847,538.683,0.0
52630.0,STARLINK-3989,PAYLOAD,2024-02-15 07:24:05,15.08835697,0.0001764,53.2193,51.1845,108.5888,251.5296,5.2843e-05,5.53e-06,0.0,0 STARLINK-3989,1 52630U 22052AJ  24046.30839587  .00000553  00000-0  52843-4 0  9995,2 52630  53.2193  51.1845 0001764 108.5888 251.5296 15.08835697 97256,6917.894,95.438,540.979,538.538,0.0
52630.0,STARLINK-3989,PAYLOAD,2024-02-15 16:56:24,15.08834832,0.0001635,53.2192,49.3993,103.2727,256.8448,5.2033e-05,5.4e-06,0.0,0 STARLINK-3989,1 52630U 22052AJ  24046.70583783  .00000540  00000-0  52033-4 0  9990,2 52630  53.2192  49.3993 0001635 103.2727 256.8448 15.08834832 97313,6917.896,95.438,540.892,538.63,0.0
52630.0,STARLINK-3989,PAYLOAD,2024-02-16 08:50:15,15.08841282,0.000164,53.219,46.4247,102.0921,258.0255,2.4676e-05,1.05e-06,0.0,0 STARLINK-3989,1 52630U 22052AJ  24047.36823695  .00000105  00000-0  24676-4 0  9991,2 52630  53.2190  46.4247 0001640 102.0921 258.0255 15.08841282 97799,6917.876,95.437,540.876,538.607,0.0
52630.0,STARLINK-3989,PAYLOAD,2024-02-17 03:54:53,15.0883278,0.0001713,53.2208,42.8544,88.9382,271.1807,0.00010197,1.335e-05,0.0,0 STARLINK-3989,1 52630U 22052AJ  24048.16312244  .00001335  00000-0  10197-3 0  9991,2 52630  53.2208  42.8544 0001713  88.9382 271.1807 15.08832780 97919,6917.902,95.438,540.952,538.582,0.0
52630.0,STARLINK-3989,PAYLOAD,2024-02-17 08:41:02,15.08840318,0.0001721,53.2197,41.9601,93.7261,266.3928,5.6963e-05,6.19e-06,0.0,0 STARLINK-3989,1 52630U 22052AJ  24048.36183917  .00000619  00000-0  56963-4 0  9992,2 52630  53.2197  41.9601 0001721  93.7261 266.3928 15.08840318 97566,6917.879,95.438,540.935,538.554,0.0
52630.0,STARLINK-3989,PAYLOAD,2024-02-17 22:59:31,15.08835063,0.0001727,53.2173,39.2852,83.5899,276.529,6.6265e-05,7.67e-06,0.0,0 STARLINK-3989,1 52630U 22052AJ  24048.95800332  .00000767  00000-0  66265-4 0  9994,2 52630  53.2173  39.2852 0001727  83.5899 276.5290 15.08835063 97654,6917.895,95.438,540.955,538.566,0.0
52630.0,STARLINK-3989,PAYLOAD,2024-02-18 08:31:49,15.08846241,0.0001591,53.2185,37.501,88.1308,271.9866,0.00012499,1.702e-05,0.0,0 STARLINK-3989,1 52630U 22052AJ  24049.35543460  .00001702  00000-0  12499-3 0  9994,2 52630  53.2185  37.5010 0001591  88.1308 271.9866 15.08846241 98096,6917.861,95.437,540.827,538.626,0.0
52630.0,STARLINK-3989,PAYLOAD,2024-02-18 16:28:45,15.08844276,0.0001468,53.2183,36.013,98.7783,261.3375,5.6906e-05,6.18e-06,0.0,0 STARLINK-3989,1 52630U 22052AJ  24049.68663567  .00000618  00000-0  56906-4 0  9998,2 52630  53.2183  36.0130 0001468  98.7783 261.3375 15.08844276 97765,6917.867,95.437,540.748,538.717,0.0
52630.0,STARLINK-3989,PAYLOAD,2024-02-19 03:36:27,15.08842413,0.0001474,53.2182,33.9313,88.4695,271.6466,8.6623e-05,1.091e-05,0.0,0 STARLINK-3989,1 52630U 22052AJ  24050.15031499  .00001091  00000-0  86623-4 0  9990,2 52630  53.2182  33.9313 0001474  88.4695 271.6466 15.08842413 98215,6917.873,95.437,540.758,538.718,0.0
52630.0,STARLINK-3989,PAYLOAD,2024-02-19 08:22:35,15.08854054,0.0001457,53.2182,33.0374,101.7148,258.4008,6.6111e-05,7.65e-06,0.0,0 STARLINK-3989,1 52630U 22052AJ  24050.34902701  .00000765  00000-0  66111-4 0  9991,2 52630  53.2182  33.0374 0001457 101.7148 258.4008 15.08854054 98248,6917.837,95.437,540.71,538.695,0.0
52630.0,STARLINK-3989,PAYLOAD,2024-02-20 03:27:15,15.08831463,0.0001688,53.2191,29.4737,83.6736,276.4448,-3.3517e-05,-8.21e-06,0.0,0 STARLINK-3989,1 52630U 22052AJ  24051.14392724 -.00000821  00000-0 -33517-4 0  9997,2 52630  53.2191  29.4737 0001688  83.6736 276.4448 15.08831463 98367,6917.906,95.438,540.939,538.604,0.0
52630.0,STARLINK-3989,PAYLOAD,2024-02-20 05:02:38,15.08837672,0.0001544,53.2186,29.1737,88.499,271.6179,-7.3956e-05,-1.465e-05,0.0,0 STARLINK-3989,1 52630U 22052AJ  24051.21016453 -.00001465  00000-0 -73956-4 0  9993,2 52630  53.2186  29.1737 0001544  88.4990 271.6179 15.08837672 97998,6917.888,95.438,540.821,538.684,0.0
52630.0,STARLINK-3989,PAYLOAD,2024-02-21 04:53:24,15.08845958,0.0001336,53.2181,24.7127,90.9077,269.2068,7.3271e-05,8.79e-06,0.0,0 STARLINK-3989,1 52630U 22052AJ  24052.20375403  .00000879  00000-0  73271-4 0  9992,2 52630  53.2181  24.7127 0001336  90.9077 269.2068 15.08845958 98526,6917.862,95.437,540.651,538.803,0.0
52630.0,STARLINK-3989,PAYLOAD,2024-02-22 04:44:11,15.08840009,0.0001282,53.2185,20.2527,86.3012,273.8127,0.00011201,1.495e-05,0.0,0 STARLINK-3989,1 52630U 22052AJ  24053.19736026  .00001495  00000-0  11201-3 0  9992,2 52630  53.2185  20.2527 0001282  86.3012 273.8127 15.08840009 98678,6917.88,95.438,540.632,538.858,0.0
52630.0,STARLINK-3989,PAYLOAD,2024-02-22 14:16:30,15.08838604,0.0001274,53.2185,18.4696,86.7552,273.3586,7.3995e-05,8.9e-06,0.0,0 STARLINK-3989,1 52630U 22052AJ  24053.59480291  .00000890  00000-0  73995-4 0  9993,2 52630  53.2185  18.4696 0001274  86.7552 273.3586 15.08838604 98355,6917.885,95.438,540.631,538.868,0.0
52630.0,STARLINK-3989,PAYLOAD,2024-02-23 02:59:36,15.0884105,0.0001566,53.2196,16.0952,107.5851,252.5312,-4.4549e-06,-3.59e-06,0.0,0 STARLINK-3989,1 52630U 22052AJ  24054.12472472 -.00000359  00000-0 -44549-5 0  9991,2 52630  53.2196  16.0952 0001566 107.5851 252.5312 15.08841050 98810,6917.877,95.437,540.826,538.659,0.0
52630.0,STARLINK-3989,PAYLOAD,2024-02-23 14:07:17,15.08846907,0.0001433,53.2198,14.0133,97.9054,262.2101,-2.5308e-05,-6.91e-06,0.0,0 STARLINK-3989,1 52630U 22052AJ  24054.58840157 -.00000691  00000-0 -25308-4 0  9990,2 52630  53.2198  14.0133 0001433  97.9054 262.2101 15.08846907 98507,6917.859,95.437,540.716,538.733,0.0
52630.0,STARLINK-3989,PAYLOAD,2024-02-24 04:25:46,15.08835384,0.0001416,53.2197,11.3371,91.8925,268.2229,1.0061e-05,-1.28e-06,0.0,0 STARLINK-3989,1 52630U 22052AJ  24055.18457089 -.00000128  00000-0  10061-4 0  9999,2 52630  53.2197  11.3371 0001416  91.8925 268.2229 15.08835384 98976,6917.894,95.438,540.739,538.78,0.0
52630.0,STARLINK-3989,PAYLOAD,2024-02-24 13:58:05,15.0883749,0.0001533,53.2205,9.5525,91.7024,268.4144,4.1272e-05,3.69e-06,0.0,0 STARLINK-3989,1 52630U 22052AJ  24055.58201023  .00000369  00000-0  41272-4 0  9992,2 52630  53.2205   9.5525 0001533  91.7024 268.4144 15.08837490 98658,6917.888,95.438,540.814,538.693,0.0
52630.0,STARLINK-3989,PAYLOAD,2024-02-24 18:44:14,15.08839221,0.0001479,53.2202,8.6596,90.5801,269.5361,6.9244e-05,8.14e-06,0.0,0 STARLINK-3989,1 52630U 22052AJ  24055.78072841  .00000814  00000-0  69244-4 0  9992,2 52630  53.2202   8.6596 0001479  90.5801 269.5361 15.08839221 98682,6917.883,95.438,540.771,538.725,0.0
52630.0,STARLINK-3989,PAYLOAD,2024-02-25 04:16:33,15.08850669,0.000148,53.2199,6.874,83.5862,276.5299,0.00011467,1.538e-05,0.0,0 STARLINK-3989,1 52630U 22052AJ  24056.17815997  .00001538  00000-0  11467-3 0  9990,2 52630  53.2199   6.8740 0001480  83.5862 276.5299 15.08850669 99126,6917.848,95.437,540.737,538.689,0.0
52630.0,STARLINK-3989,PAYLOAD,2024-02-25 13:48:52,15.08844926,0.0001736,53.2211,5.0917,77.2831,282.8355,7.2779e-05,8.71e-06,0.0,0 STARLINK-3989,1 52630U 22052AJ  24056.57560443  .00000871  00000-0  72779-4 0  9990,2 52630  53.2211   5.0917 0001736  77.2831 282.8355 15.08844926 98804,6917.865,95.437,540.931,538.529,0.0
52630.0,STARLINK-3989,PAYLOAD,2024-02-25 20:10:24,15.08839205,0.0001636,53.2195,3.9027,77.7609,282.3566,0.00010447,1.375e-05,0.0,0 STARLINK-3989,1 52630U 22052AJ  24056.84056639  .00001375  00000-0  10447-3 0  9990,2 52630  53.2195   3.9027 0001636  77.7609 282.3566 15.08839205 99221,6917.883,95.438,540.88,538.616,0.0
52630.0,STARLINK-3989,PAYLOAD,2024-02-26 04:07:19,15.08853818,0.0001417,53.2198,2.4131,86.7584,273.3571,0.00014367,2e-05,0.0,0 STARLINK-3989,1 52630U 22052AJ  24057.17175477  .00002000  00000-0  14367-3 0  9990,2 52630  53.2198   2.4131 0001417  86.7584 273.3571 15.08853818 99270,6917.838,95.437,540.683,538.723,0.0
